{"spkid": "50703562", "covariance": {"epoch": "2457171.5", "labels": ["e", "q", "tp", "node", "peri", "i"], "elements": [{"label": "e", "units": null, "value": ".2899373093801095", "title": "eccentricity", "name": "e", "sigma": 6.4151834367709e-07}, {"units": "au", "value": ".6890816940942395", "title": "perihelion distance", "sigma": 6.63863563751358e-07, "name": "q", "label": "q"}, {"label": "tp", "units": "TDB", "value": "2457146.584575704469", "title": "time of perihelion passage", "sigma": 4.86000511536762e-05, "name": "tp"}, {"sigma": 9.78324914391988e-06, "name": "om", "value": "123.235630054343", "title": "longitude of the ascending node", "units": "deg", "label": "node"}, {"label": "peri", "units": "deg", "title": "argument of perihelion", "value": "122.849432792775", "name": "w", "sigma": 3.216156969643e-05}, {"units": "deg", "title": "inclination", "value": "15.08292130899393", "name": "i", "sigma": 2.11218870995374e-05, "label": "i"}], "data": [["4.115457852741973E-13", "-4.256467349806338E-13", "-1.842403737162322E-11", "7.872928484097352E-13", "1.267440824451888E-11", "1.149550093586623E-11"], ["-4.256467349806338E-13", "4.407148312766538E-13", "1.821721565162175E-11", "-8.864175460679643E-13", "-1.361382348481242E-11", "-1.196527285230222E-11"], ["-1.842403737162322E-11", "1.821721565162175E-11", "2.361964972139947E-9", "1.039752639552178E-10", "3.629418849423079E-10", "-3.830332068492899E-10"], ["7.872928484097352E-13", "-8.864175460679643E-13", "1.039752639552178E-10", "9.571196381200897E-11", "3.052842089359234E-11", "-2.632663720029191E-11"], ["1.267440824451888E-11", "-1.361382348481242E-11", "3.629418849423079E-10", "3.052842089359234E-11", "1.034366565338326E-9", "4.911551885389708E-10"], ["1.149550093586623E-11", "-1.196527285230222E-11", "-3.830332068492899E-10", "-2.632663720029191E-11", "4.911551885389708E-10", "4.461341146456031E-10"]]}, "elements": [{"label": "e", "name": "e", "sigma": "6.4389E-7", "units": null, "title": "eccentricity", "value": ".2900388876256511"}, {"label": "a", "sigma": "5.8888E-8", "name": "a", "value": ".9700345094096329", "title": "semi-major axis", "units": "au"}, {"label": "q", "sigma": "6.6136E-7", "name": "q", "units": "au", "value": ".6886867793419689", "title": "perihelion distance"}, {"label": "i", "title": "inclination; angle with respect to x-y ecliptic plane", "value": "15.07955567324193", "units": "deg", "name": "i", "sigma": "2.113E-5"}, {"title": "longitude of the ascending node", "value": "123.1813782608729", "units": "deg", "sigma": "9.8264E-6", "name": "om", "label": "node"}, {"label": "peri", "name": "w", "sigma": "3.2019E-5", "value": "122.9854702560934", "title": "argument of perihelion", "units": "deg"}, {"label": "M", "units": "deg", "title": "mean anomaly", "value": "222.0843885212343", "sigma": ".00040891", "name": "ma"}, {"label": "tp", "units": "TDB", "value": "2461334.187293950971", "title": "time of perihelion passage", "name": "tp", "sigma": ".00040844"}, {"label": "period", "name": "per", "sigma": "3.1777E-5", "value": "348.9628571146891", "title": "sidereal orbital period", "units": "d"}, {"sigma": "9.394E-8", "name": "n", "units": "deg/d", "value": "1.031628417352404", "title": "mean motion", "label": "n"}, {"value": "1.251382239477297", "title": "aphelion distance", "units": "au", "sigma": "7.5967E-8", "name": "ad", "label": "Q"}], "epoch": "2461200.5"}